STARLINK-31257          
1 59079U 24041F   26068.03876622  .00000506  00000+0  27929-4 0  9990
2 59079  43.0036 314.2360 0001446 256.3758 103.6933 15.27580429114170
STARLINK-36554          
1 67502U 26012K   26067.71268370  .00032833  00000+0  11969-2 0  9992
2 67502  42.9934 319.8184 0000695 339.2059  20.8765 15.27591469  7619
